OBJECT_NAME,OBJECT_ID,EPOCH,MEAN_MOTION,ECCENTRICITY,INCLINATION,RA_OF_ASC_NODE,ARG_OF_PERICENTER,MEAN_ANOMALY,EPHEMERIS_TYPE,CLASSIFICATION_TYPE,NORAD_CAT_ID,ELEMENT_SET_NO,REV_AT_EPOCH,BSTAR,MEAN_MOTION_DOT,MEAN_MOTION_DDOT
KUZGTU 1 (RS47S),2023-091AV,2026-06-09T12:17:02.035968,15.29683401,.0012345,97.5068,224.9144,121.6096,238.6350,0,U,57217,999,16320,.38819E-3,.11116E-3,0
SONATE-2,2024-043Q,2026-06-09T08:51:20.595168,15.58132501,.0006662,97.5522,310.2893,222.2794,137.7948,0,U,59112,999,12667,.45197E-3,.34035E-3,0
MESAT1,2024-125G,2026-06-09T08:36:16.807968,15.62357487,.0008831,97.2316,17.6671,234.4454,125.5982,0,U,60209,999,10834,.54218E-3,.4811E-3,0
OOV-CUBE (TUBSAT-30),2024-128F,2026-06-09T12:52:32.983104,15.02741636,.0045584,61.9950,252.2499,132.0465,228.4520,0,U,60240,999,10496,.17279E-3,.2156E-4,0
COLIBRI-S (RS67S),2024-199M,2026-06-09T11:55:07.726080,15.47404407,.0006531,97.3009,34.2825,315.9012,44.1717,0,U,61746,999,13622,.40252E-3,.20556E-3,0
HORS 3 (RS81S),2024-199U,2026-06-09T11:52:18.194592,15.54439035,.0004198,97.2991,36.1851,324.5591,35.5384,0,U,61753,999,13636,.49629E-3,.32593E-3,0
HORS 4 (RS82S),2024-199V,2026-06-09T11:28:19.879104,15.58961963,.0003165,97.2941,37.3207,311.4248,48.6736,0,U,61754,999,13644,.57161E-3,.44462E-3,0
ARCTICSAT 1 (RS74S),2024-199AD,2026-06-08T12:49:01.524288,16.08763925,.00081397,97.2853,43.1177,201.8763,158.2174,0,U,61762,999,13673,.11762807E-2,.1003063E-1,.58353958E-3
SIT-2086,2024-199AF,2026-06-09T11:07:30.961056,15.52550657,.0004458,97.2949,36.6568,295.1942,64.8849,0,U,61764,999,13323,.53625E-3,.32903E-3,0
HYPERVIEW 1G (RS66S),2024-199AP,2026-06-08T20:46:11.697888,15.73707202,.00020385,97.2892,39.1772,275.6858,84.4174,0,U,61772,999,13336,.70383707E-3,.99538E-3,0
ALTAIR (RS65S),2024-199AW,2026-06-09T11:52:14.550240,15.36875966,.0011887,97.3045,29.8968,341.9054,18.1766,0,U,61779,999,13593,.29443E-3,.1056E-3,0
ASRTU-1 (AO-123),2024-199AY,2026-06-09T11:25:12.100800,15.35564508,.0013101,97.3016,29.2165,344.0825,16.0005,0,U,61781,999,13274,.20065E-3,.6874E-4,0
SAMSAT-IONOSPHERE (RS75S),2024-199BB,2026-06-09T11:27:07.304832,15.56954336,.0006232,97.2962,36.1865,316.9004,43.1763,0,U,61784,999,13636,.57624E-3,.41592E-3,0
RTU MIREA 1 (RS51S),2024-199BC,2026-06-09T12:26:20.084064,15.60253180,.0005617,97.2952,37.0215,309.6342,50.4419,0,U,61785,999,13327,.62375E-3,.51026E-3,0
TEVEL2-4,2025-052D,2026-06-09T10:07:49.869408,15.34336880,.0004488,97.3919,56.8032,117.1675,243.0026,0,U,63213,999,6892,.49079E-3,.16258E-3,0
TEVEL2-5,2025-052E,2026-06-09T10:36:06.489792,15.34169212,.000444,97.3913,56.7715,119.7203,240.4482,0,U,63214,999,6892,.51188E-3,.16872E-3,0
TEVEL2-6,2025-052F,2026-06-09T10:53:36.285216,15.34131711,.0004471,97.3915,56.7681,119.5298,240.6391,0,U,63215,999,6892,.51654E-3,.17006E-3,0
TEVEL2-1,2025-052H,2026-06-09T05:15:44.542656,15.33600892,.0004303,97.3890,56.1670,128.3917,231.7713,0,U,63217,999,6887,.47283E-3,.15298E-3,0
TEVEL2-3,2025-052J,2026-06-09T06:42:23.209056,15.33659205,.0004412,97.3888,56.2474,129.8518,230.3113,0,U,63218,999,6888,.49846E-3,.16163E-3,0
TEVEL2-2,2025-052K,2026-06-08T16:44:35.826432,15.33595395,.00042303,97.3887,55.6477,131.0442,229.1167,0,U,63219,999,6879,.56086739E-3,.18164E-3,0
TEVEL2-9,2025-052AD,2026-06-09T04:29:00.212928,15.31651687,.0007021,97.3949,55.5291,153.2929,206.8676,0,U,63237,999,6880,.47809E-3,.14556E-3,0
TEVEL2-7,2025-052AE,2026-06-09T10:08:00.284064,15.31369912,.0007142,97.3953,55.6832,153.2033,206.9579,0,U,63238,999,6883,.45228E-3,.13645E-3,0
TEVEL2-8,2025-052AF,2026-06-09T10:19:46.293024,15.31353738,.0007154,97.3952,55.6688,153.7009,206.4597,0,U,63239,999,6883,.45738E-3,.13793E-3,0
INNOSAT 16 (RS92S7),2025-155C,2026-06-09T12:34:22.476864,15.25375946,.0009627,97.4557,127.6765,202.9249,157.1561,0,U,64878,999,7950,.21502E-3,.5359E-4,0
GEOSCAN 6 (RS92S6),2025-155D,2026-06-09T12:43:11.262144,15.30007612,.0007311,97.4549,129.0530,188.3013,171.8108,0,U,64879,999,7959,.32621E-3,.9408E-4,0
GEOSCAN 1 (RS92S1),2025-155E,2026-06-09T12:50:57.541344,15.30591459,.0007249,97.4546,129.1997,187.9564,172.1562,0,U,64880,999,7960,.33926E-3,.9966E-4,0
239ALFEROV (RS61S),2025-155F,2026-06-09T12:22:49.169568,15.32734436,.000693,97.4547,129.7161,184.4706,175.6476,0,U,64881,999,7963,.41094E-3,.12928E-3,0
GEOSCAN 2 (RS92S2),2025-155Q,2026-06-09T12:43:48.935136,15.30863086,.0007128,97.4545,129.3442,173.4176,186.7159,0,U,64890,999,7961,.33588E-3,.9949E-4,0
GEOSCAN 5 (RS92S5),2025-155R,2026-06-09T12:09:18.398016,15.33053354,.0005607,97.4540,129.8411,187.5062,172.6097,0,U,64891,999,7964,.40502E-3,.12866E-3,0
GEOSCAN 4 (RS92S4),2025-155S,2026-06-09T11:47:38.267232,15.33202501,.0005664,97.4543,129.8723,187.9923,172.1230,0,U,64892,999,7964,.40999E-3,.13087E-3,0
